[{"OBJECT_NAME":"SNAP-3 EDDIE","OBJECT_ID":"2015-058J","EPOCH":"2026-03-09T10:37:04.410624","MEAN_MOTION":15.44637695,"ECCENTRICITY":0.00384043,"INCLINATION":64.7481,"RA_OF_ASC_NODE":75.5572,"ARG_OF_PERICENTER":73.6673,"MEAN_ANOMALY":286.8683,"EPHEMERIS_TYPE":0,"CLASSIFICATION_TYPE":"U","NORAD_CAT_ID":40972,"ELEMENT_SET_NO":999,"REV_AT_EPOCH":10354,"BSTAR":0.0012991754,"MEAN_MOTION_DOT":0.00062838,"MEAN_MOTION_DDOT":0},{"OBJECT_NAME":"GHOST-4","OBJECT_ID":"2024-043AM","EPOCH":"2026-03-09T21:24:02.467008","MEAN_MOTION":15.40436625,"ECCENTRICITY":0.00084177,"INCLINATION":97.5443,"RA_OF_ASC_NODE":210.3538,"ARG_OF_PERICENTER":209.2887,"MEAN_ANOMALY":150.7888,"EPHEMERIS_TYPE":0,"CLASSIFICATION_TYPE":"U","NORAD_CAT_ID":59133,"ELEMENT_SET_NO":999,"REV_AT_EPOCH":11223,"BSTAR":0.00046285674,"MEAN_MOTION_DOT":0.00018691,"MEAN_MOTION_DDOT":0}]
